NORAD_CAT_ID,OBJECT_NAME,OBJECT_TYPE,EPOCH,MEAN_MOTION,ECCENTRICITY,INCLINATION,RA_OF_ASC_NODE,ARG_OF_PERICENTER,MEAN_ANOMALY,BSTAR,MEAN_MOTION_DOT,MEAN_MOTION_DDOT,TLE_LINE0,TLE_LINE1,TLE_LINE2,SEMIMAJOR_AXIS,PERIOD,APOGEE,PERIGEE,DECAYED
55405.0,STARLINK-5623,PAYLOAD,2024-05-16 03:47:51,14.98348313,0.0001799,69.9989,294.9693,279.8263,80.2693,4.5697e-05,4.53e-06,0.0,0 STARLINK-5623,1 55405U 23014Q   24137.15823571  .00000453  00000-0  45697-4 0  9995,2 55405  69.9989 294.9693 0001799 279.8263  80.2693 14.98348313 71871,6950.136,96.106,573.252,570.751,0.0
55405.0,STARLINK-5623,PAYLOAD,2024-05-16 11:48:32,14.98333076,0.0002714,69.9991,294.1284,268.9033,91.1815,-0.00018609,-2.313e-05,0.0,0 STARLINK-5623,1 55405U 23014Q   24137.49204404 -.00002313  00000-0 -18609-3 0  9991,2 55405  69.9991 294.1284 0002714 268.9033  91.1815 14.98333076 71927,6950.183,96.107,573.935,570.162,0.0
55405.0,STARLINK-5623,PAYLOAD,2024-05-16 19:49:12,14.98339795,0.0002538,69.9993,293.2879,266.8527,93.2342,-0.00010702,-1.37e-05,0.0,0 STARLINK-5623,1 55405U 23014Q   24137.82583549 -.00001370  00000-0 -10702-3 0  9996,2 55405  69.9993 293.2879 0002538 266.8527  93.2342 14.98339795 71975,6950.163,96.106,573.792,570.264,0.0
55405.0,STARLINK-5623,PAYLOAD,2024-05-17 11:50:32,14.98338608,0.000247,69.9994,291.6034,267.1406,92.947,-0.00017894,-2.228e-05,0.0,0 STARLINK-5623,1 55405U 23014Q   24138.49343329 -.00002228  00000-0 -17894-3 0  9992,2 55405  69.9994 291.6034 0002470 267.1406  92.9470 14.98338608 73013,6950.166,96.106,573.748,570.315,0.0
55405.0,STARLINK-5623,PAYLOAD,2024-05-17 16:38:56,14.98340847,0.0002558,69.9995,291.1,263.8825,96.2042,-0.00018547,-2.306e-05,0.0,0 STARLINK-5623,1 55405U 23014Q   24138.69371063 -.00002306  00000-0 -18547-3 0  9993,2 55405  69.9995 291.1000 0002558 263.8825  96.2042 14.98340847 73040,6950.159,96.106,573.802,570.246,0.0
55405.0,STARLINK-5623,PAYLOAD,2024-05-18 03:51:52,14.98333963,0.0002701,69.9979,289.9196,261.1402,98.9451,1.3453e-05,6.8e-07,0.0,0 STARLINK-5623,1 55405U 23014Q   24139.16102833  .00000068  00000-0  13453-4 0  9996,2 55405  69.9979 289.9196 0002701 261.1402  98.9451 14.98333963 72172,6950.181,96.107,573.923,570.168,0.0
55405.0,STARLINK-5623,PAYLOAD,2024-05-18 13:28:40,14.98334712,0.0002796,69.9988,288.9099,269.3332,90.7507,0.00024943,2.885e-05,0.0,0 STARLINK-5623,1 55405U 23014Q   24139.56158272  .00002885  00000-0  24943-3 0  9992,2 55405  69.9988 288.9099 0002796 269.3332  90.7507 14.98334712 73175,6950.178,96.107,573.987,570.1,0.0
55405.0,STARLINK-5623,PAYLOAD,2024-05-18 19:53:12,14.98350194,0.0002843,70.0001,288.2369,270.441,89.6423,0.0004908,5.771e-05,0.0,0 STARLINK-5623,1 55405U 23014Q   24139.82861771  .00005771  00000-0  49080-3 0  9992,2 55405  70.0001 288.2369 0002843 270.4410  89.6423 14.98350194 72276,6950.13,96.106,573.971,570.02,0.0
55405.0,STARLINK-5623,PAYLOAD,2024-05-19 13:30:42,14.98320813,0.0003423,70.0,286.3854,276.1234,83.9535,-0.00020748,-2.567e-05,0.0,0 STARLINK-5623,1 55405U 23014Q   24140.56299196 -.00002567  00000-0 -20748-3 0  9993,2 55405  70.0000 286.3854 0003423 276.1234  83.9535 14.98320813 73328,6950.221,96.108,574.465,569.707,0.0
55405.0,STARLINK-5623,PAYLOAD,2024-05-20 11:56:35,14.98341263,0.0003462,70.0003,284.0287,265.0375,95.0389,0.0012846,0.00015273,0.0,0 STARLINK-5623,1 55405U 23014Q   24141.49763136  .00015273  00000-0  12846-2 0  9991,2 55405  70.0003 284.0287 0003462 265.0375  95.0389 14.98341263 72526,6950.158,96.106,574.429,569.617,0.0
55405.0,STARLINK-5623,PAYLOAD,2024-05-20 13:32:43,14.98345312,0.0003468,70.0003,283.8604,265.4007,94.6755,0.0014112,0.00016793,0.0,0 STARLINK-5623,1 55405U 23014Q   24141.56439056  .00016793  00000-0  14112-2 0  9996,2 55405  70.0003 283.8604 0003468 265.4007  94.6755 14.98345312 73474,6950.146,96.106,574.421,569.6,0.0
55405.0,STARLINK-5623,PAYLOAD,2024-05-20 19:57:15,14.98360992,0.0003387,70.0005,283.1871,265.3505,94.7267,0.0016753,0.0001997,0.0,0 STARLINK-5623,1 55405U 23014Q   24141.83142513  .00019970  00000-0  16753-2 0  9998,2 55405  70.0005 283.1871 0003387 265.3505  94.7267 14.98360992 72577,6950.097,96.105,574.316,569.608,0.0
55405.0,STARLINK-5623,PAYLOAD,2024-05-21 11:58:36,14.98335346,0.0003073,70.0009,281.5038,267.2339,92.8469,0.00098087,0.00011632,0.0,0 STARLINK-5623,1 55405U 23014Q   24142.49902965  .00011632  00000-0  98087-3 0  9994,2 55405  70.0009 281.5038 0003073 267.2339  92.8469 14.98335346 72675,6950.176,96.107,574.177,569.906,0.0
55405.0,STARLINK-5623,PAYLOAD,2024-05-21 13:34:44,14.983334,0.0003369,70.0009,281.3354,272.4983,87.5791,0.0011227,0.0001333,0.0,0 STARLINK-5623,1 55405U 23014Q   24142.56579011  .00013330  00000-0  11227-2 0  9991,2 55405  70.0009 281.3354 0003369 272.4983  87.5791 14.98333400 73629,6950.182,96.107,574.389,569.706,0.0
55405.0,STARLINK-5623,PAYLOAD,2024-05-21 18:23:08,14.9834136,0.0003292,70.0008,280.8307,264.4525,95.6259,0.0007404,8.755e-05,0.0,0 STARLINK-5623,1 55405U 23014Q   24142.76606804  .00008755  00000-0  74040-3 0  9992,2 55405  70.0008 280.8307 0003292 264.4525  95.6259 14.98341360 73654,6950.158,96.106,574.311,569.735,0.0
55405.0,STARLINK-5623,PAYLOAD,2024-05-22 12:00:37,14.98341744,0.0002603,70.0022,278.9799,249.2831,110.8049,0.0010318,0.00012243,0.0,0 STARLINK-5623,1 55405U 23014Q   24143.50042917  .00012243  00000-0  10318-2 0  9998,2 55405  70.0022 278.9799 0002603 249.2831 110.8049 14.98341744 72820,6950.157,96.106,573.831,570.212,0.0
55405.0,STARLINK-5623,PAYLOAD,2024-05-23 12:02:38,14.98332544,0.0002747,70.0028,276.4575,238.3101,121.779,0.00018665,2.135e-05,0.0,0 STARLINK-5623,1 55405U 23014Q   24144.50182959  .00002135  00000-0  18665-3 0  9993,2 55405  70.0028 276.4575 0002747 238.3101 121.7790 14.98332544 72977,6950.185,96.107,573.959,570.141,0.0
55405.0,STARLINK-5623,PAYLOAD,2024-05-23 13:38:46,14.98331576,0.0002747,70.0029,276.289,238.7341,121.3549,0.00014182,1.6e-05,0.0,0 STARLINK-5623,1 55405U 23014Q   24144.56858978  .00001600  00000-0  14182-3 0  9996,2 55405  70.0029 276.2890 0002747 238.7341 121.3549 14.98331576 73924,6950.188,96.107,573.962,570.144,0.0
55405.0,STARLINK-5623,PAYLOAD,2024-05-23 18:27:10,14.9833057,0.0002728,70.0026,275.7837,240.9161,119.1725,0.00012213,1.365e-05,0.0,0 STARLINK-5623,1 55405U 23014Q   24144.76887066  .00001365  00000-0  12213-3 0  9999,2 55405  70.0026 275.7837 0002728 240.9161 119.1725 14.98330570 73957,6950.191,96.107,573.952,570.16,0.0
55405.0,STARLINK-5623,PAYLOAD,2024-05-24 12:04:38,14.98339254,0.0002688,70.0027,273.9319,243.6093,116.479,0.00025079,2.901e-05,0.0,0 STARLINK-5623,1 55405U 23014Q   24145.50322572  .00002901  00000-0  25079-3 0  9999,2 55405  70.0027 273.9319 0002688 243.6093 116.4790 14.98339254 73121,6950.164,96.106,573.897,570.161,0.0
55405.0,STARLINK-5623,PAYLOAD,2024-05-24 13:40:46,14.98338955,0.0002691,70.0026,273.7635,243.6553,116.433,0.00023678,2.734e-05,0.0,0 STARLINK-5623,1 55405U 23014Q   24145.56998550  .00002734  00000-0  23678-3 0  9997,2 55405  70.0026 273.7635 0002691 243.6553 116.4330 14.98338955 74076,6950.165,96.106,573.9,570.16,0.0
55405.0,STARLINK-5623,PAYLOAD,2024-05-24 18:29:10,14.98338212,0.0002605,70.0013,273.257,250.8112,109.2765,0.0004685,5.503e-05,0.0,0 STARLINK-5623,1 55405U 23014Q   24145.77026597  .00005503  00000-0  46850-3 0  9997,2 55405  70.0013 273.2570 0002605 250.8112 109.2765 14.98338212 74103,6950.167,96.106,573.843,570.222,0.0
55405.0,STARLINK-5623,PAYLOAD,2024-05-25 12:06:40,14.98326693,0.0003033,70.0005,271.4046,266.5438,93.5374,-2.787e-05,-4.25e-06,0.0,0 STARLINK-5623,1 55405U 23014Q   24146.50463111 -.00000425  00000-0 -27870-4 0  9998,2 55405  70.0005 271.4046 0003033 266.5438  93.5374 14.98326693 73271,6950.203,96.107,574.176,569.96,0.0
55405.0,STARLINK-5623,PAYLOAD,2024-05-25 15:18:56,14.98324385,0.0003142,70.0005,271.0679,268.246,91.8339,-9.0243e-05,-1.169e-05,0.0,0 STARLINK-5623,1 55405U 23014Q   24146.63815250 -.00001169  00000-0 -90243-4 0  9997,2 55405  70.0005 271.0679 0003142 268.2460  91.8339 14.98324385 74239,6950.21,96.107,574.259,569.891,0.0
55405.0,STARLINK-5623,PAYLOAD,2024-05-26 12:08:40,14.98336909,0.0002799,69.9996,268.8796,263.6498,96.4342,0.00012674,1.42e-05,0.0,0 STARLINK-5623,1 55405U 23014Q   24147.50602729  .00001420  00000-0  12674-3 0  9998,2 55405  69.9996 268.8796 0002799 263.6498  96.4342 14.98336909 73426,6950.172,96.107,573.982,570.091,0.0
55405.0,STARLINK-5623,PAYLOAD,2024-05-26 18:33:12,14.98348859,0.0002916,69.9995,268.2061,272.1393,87.9432,-6.9673e-05,-9.25e-06,0.0,0 STARLINK-5623,1 55405U 23014Q   24147.77306113 -.00000925  00000-0 -69673-4 0  9998,2 55405  69.9995 268.2061 0002916 272.1393  87.9432 14.98348859 73460,6950.135,96.106,574.026,569.973,0.0
55405.0,STARLINK-5623,PAYLOAD,2024-05-27 00:57:45,14.9833531,0.0002921,70.002,267.5342,268.3668,91.7157,4.042e-05,3.89e-06,0.0,0 STARLINK-5623,1 55405U 23014Q   24148.04010778  .00000389  00000-0  40420-4 0  9999,2 55405  70.0020 267.5342 0002921 268.3668  91.7157 14.98335310 73504,6950.176,96.107,574.072,570.011,0.0
55405.0,STARLINK-5623,PAYLOAD,2024-05-27 12:10:42,14.98325626,0.0002926,70.0001,266.3552,272.9476,87.1348,0.00022159,2.552e-05,0.0,0 STARLINK-5623,1 55405U 23014Q   24148.50743351  .00002552  00000-0  22159-3 0  9992,2 55405  70.0001 266.3552 0002926 272.9476  87.1348 14.98325626 73573,6950.206,96.107,574.105,570.038,0.0
55405.0,STARLINK-5623,PAYLOAD,2024-05-27 13:46:50,14.98326657,0.0002911,70.0001,266.1869,272.9757,87.1069,0.00023704,2.736e-05,0.0,0 STARLINK-5623,1 55405U 23014Q   24148.57419323  .00002736  00000-0  23704-3 0  9999,2 55405  70.0001 266.1869 0002911 272.9757  87.1069 14.98326657 74529,6950.203,96.107,574.091,570.045,0.0
55405.0,STARLINK-5623,PAYLOAD,2024-05-27 18:35:14,14.98332102,0.0002929,70.0014,265.6817,271.565,88.5174,0.00023597,2.724e-05,0.0,0 STARLINK-5623,1 55405U 23014Q   24148.77447071  .00002724  00000-0  23597-3 0  9999,2 55405  70.0014 265.6817 0002929 271.5650  88.5174 14.98332102 74553,6950.186,96.107,574.087,570.016,0.0
